[
  {
    "OBJECT_NAME": "STARLINK-5741",
    "OBJECT_ID": "23020P",
    "EPOCH": "2025-11-11T06:35:21.657408",
    "MEAN_MOTION": 15.02539708,
    "ECCENTRICITY": 0.0001171,
    "INCLINATION": 43.0047,
    "RA_OF_ASC_NODE": 275.3594,
    "ARG_OF_PERICENTER": 263.6797,
    "MEAN_ANOMALY": 96.3912,
    "EPHEMERIS_TYPE": 0,
    "CLASSIFICATION_TYPE": "U",
    "NORAD_CAT_ID": 55582,
    "ELEMENT_SET_NO": 999,
    "REV_AT_EPOCH": 15125,
    "BSTAR": 2.3930000000000003e-05,
    "MEAN_MOTION_DOT": 1.2e-06,
    "MEAN_MOTION_DDOT": 0.0,
    "TLE_LINE1": "1 55582U 23020P   25315.27455622  .00000120  00000+0  23930-4 0  9994",
    "TLE_LINE2": "2 55582  43.0047 275.3594 0001171 263.6797  96.3912 15.02539708151254",
    "COMMENT": "Grouped by shell and plane from TLE"
  },
  {
    "OBJECT_NAME": "STARLINK-5769",
    "OBJECT_ID": "23020S",
    "EPOCH": "2025-11-11T06:51:20.692224",
    "MEAN_MOTION": 15.02539165,
    "ECCENTRICITY": 0.0001334,
    "INCLINATION": 43.0044,
    "RA_OF_ASC_NODE": 275.4517,
    "ARG_OF_PERICENTER": 268.3499,
    "MEAN_ANOMALY": 91.719,
    "EPHEMERIS_TYPE": 0,
    "CLASSIFICATION_TYPE": "U",
    "NORAD_CAT_ID": 55585,
    "ELEMENT_SET_NO": 999,
    "REV_AT_EPOCH": 15125,
    "BSTAR": 5.426800000000001e-05,
    "MEAN_MOTION_DOT": 5.3e-06,
    "MEAN_MOTION_DDOT": 0.0,
    "TLE_LINE1": "1 55585U 23020S   25315.28565616  .00000530  00000+0  54268-4 0  9996",
    "TLE_LINE2": "2 55585  43.0044 275.4517 0001334 268.3499  91.7190 15.02539165151256",
    "COMMENT": "Grouped by shell and plane from TLE"
  },
  {
    "OBJECT_NAME": "STARLINK-5743",
    "OBJECT_ID": "23020AE",
    "EPOCH": "2025-11-11T06:46:33.775968",
    "MEAN_MOTION": 15.0253519,
    "ECCENTRICITY": 0.0001079,
    "INCLINATION": 43.0045,
    "RA_OF_ASC_NODE": 275.4244,
    "ARG_OF_PERICENTER": 259.6674,
    "MEAN_ANOMALY": 100.4046,
    "EPHEMERIS_TYPE": 0,
    "CLASSIFICATION_TYPE": "U",
    "NORAD_CAT_ID": 55597,
    "ELEMENT_SET_NO": 999,
    "REV_AT_EPOCH": 15125,
    "BSTAR": 0.00010771999999999999,
    "MEAN_MOTION_DOT": 1.252e-05,
    "MEAN_MOTION_DDOT": 0.0,
    "TLE_LINE1": "1 55597U 23020AE  25315.28233537  .00001252  00000+0  10772-3 0  9996",
    "TLE_LINE2": "2 55597  43.0045 275.4244 0001079 259.6674 100.4046 15.02535190151253",
    "COMMENT": "Grouped by shell and plane from TLE"
  },
  {
    "OBJECT_NAME": "STARLINK-5756",
    "OBJECT_ID": "23020AF",
    "EPOCH": "2025-11-11T07:00:55.560672",
    "MEAN_MOTION": 15.02539024,
    "ECCENTRICITY": 0.0001167,
    "INCLINATION": 43.0035,
    "RA_OF_ASC_NODE": 275.467,
    "ARG_OF_PERICENTER": 266.4545,
    "MEAN_ANOMALY": 93.6164,
    "EPHEMERIS_TYPE": 0,
    "CLASSIFICATION_TYPE": "U",
    "NORAD_CAT_ID": 55598,
    "ELEMENT_SET_NO": 999,
    "REV_AT_EPOCH": 15125,
    "BSTAR": 0.00015327,
    "MEAN_MOTION_DOT": 1.868e-05,
    "MEAN_MOTION_DDOT": 0.0,
    "TLE_LINE1": "1 55598U 23020AF  25315.29230973  .00001868  00000+0  15327-3 0  9993",
    "TLE_LINE2": "2 55598  43.0035 275.4670 0001167 266.4545  93.6164 15.02539024151251",
    "COMMENT": "Grouped by shell and plane from TLE"
  },
  {
    "OBJECT_NAME": "STARLINK-5761",
    "OBJECT_ID": "23020AG",
    "EPOCH": "2025-11-11T06:56:07.490976",
    "MEAN_MOTION": 15.02543389,
    "ECCENTRICITY": 0.0001093,
    "INCLINATION": 43.0039,
    "RA_OF_ASC_NODE": 275.4434,
    "ARG_OF_PERICENTER": 272.0,
    "MEAN_ANOMALY": 88.0717,
    "EPHEMERIS_TYPE": 0,
    "CLASSIFICATION_TYPE": "U",
    "NORAD_CAT_ID": 55599,
    "ELEMENT_SET_NO": 999,
    "REV_AT_EPOCH": 15125,
    "BSTAR": 9.3127e-05,
    "MEAN_MOTION_DOT": 1.055e-05,
    "MEAN_MOTION_DDOT": 0.0,
    "TLE_LINE1": "1 55599U 23020AG  25315.28897559  .00001055  00000+0  93127-4 0  9995",
    "TLE_LINE2": "2 55599  43.0039 275.4434 0001093 272.0000  88.0717 15.02543389151252",
    "COMMENT": "Grouped by shell and plane from TLE"
  },
  {
    "OBJECT_NAME": "STARLINK-5755",
    "OBJECT_ID": "23020AH",
    "EPOCH": "2025-11-11T05:02:50.384832",
    "MEAN_MOTION": 15.02539412,
    "ECCENTRICITY": 0.0001093,
    "INCLINATION": 43.0039,
    "RA_OF_ASC_NODE": 275.7309,
    "ARG_OF_PERICENTER": 273.5174,
    "MEAN_ANOMALY": 86.5544,
    "EPHEMERIS_TYPE": 0,
    "CLASSIFICATION_TYPE": "U",
    "NORAD_CAT_ID": 55600,
    "ELEMENT_SET_NO": 999,
    "REV_AT_EPOCH": 15124,
    "BSTAR": 0.00019211,
    "MEAN_MOTION_DOT": 2.393e-05,
    "MEAN_MOTION_DDOT": 0.0,
    "TLE_LINE1": "1 55600U 23020AH  25315.21030538  .00002393  00000+0  19211-3 0  9994",
    "TLE_LINE2": "2 55600  43.0039 275.7309 0001093 273.5174  86.5544 15.02539412151249",
    "COMMENT": "Grouped by shell and plane from TLE"
  },
  {
    "OBJECT_NAME": "STARLINK-5764",
    "OBJECT_ID": "23020AK",
    "EPOCH": "2025-11-11T05:17:12.165216",
    "MEAN_MOTION": 15.02520237,
    "ECCENTRICITY": 9.47e-05,
    "INCLINATION": 43.0031,
    "RA_OF_ASC_NODE": 275.7904,
    "ARG_OF_PERICENTER": 278.6977,
    "MEAN_ANOMALY": 81.3758,
    "EPHEMERIS_TYPE": 0,
    "CLASSIFICATION_TYPE": "U",
    "NORAD_CAT_ID": 55602,
    "ELEMENT_SET_NO": 999,
    "REV_AT_EPOCH": 15124,
    "BSTAR": 0.000508,
    "MEAN_MOTION_DOT": 6.662e-05,
    "MEAN_MOTION_DDOT": 0.0,
    "TLE_LINE1": "1 55602U 23020AK  25315.22027969  .00006662  00000+0  50800-3 0  9993",
    "TLE_LINE2": "2 55602  43.0031 275.7904 0000947 278.6977  81.3758 15.02520237151243",
    "COMMENT": "Grouped by shell and plane from TLE"
  },
  {
    "OBJECT_NAME": "STARLINK-5735",
    "OBJECT_ID": "23020AL",
    "EPOCH": "2025-11-11T05:07:37.037568",
    "MEAN_MOTION": 15.02544982,
    "ECCENTRICITY": 8.44e-05,
    "INCLINATION": 43.0055,
    "RA_OF_ASC_NODE": 275.7612,
    "ARG_OF_PERICENTER": 280.1752,
    "MEAN_ANOMALY": 79.8996,
    "EPHEMERIS_TYPE": 0,
    "CLASSIFICATION_TYPE": "U",
    "NORAD_CAT_ID": 55603,
    "ELEMENT_SET_NO": 999,
    "REV_AT_EPOCH": 15124,
    "BSTAR": 0.00018582,
    "MEAN_MOTION_DOT": 2.308e-05,
    "MEAN_MOTION_DDOT": 0.0,
    "TLE_LINE1": "1 55603U 23020AL  25315.21362312  .00002308  00000+0  18582-3 0  9991",
    "TLE_LINE2": "2 55603  43.0055 275.7612 0000844 280.1752  79.8996 15.02544982151240",
    "COMMENT": "Grouped by shell and plane from TLE"
  },
  {
    "OBJECT_NAME": "STARLINK-5725",
    "OBJECT_ID": "23020AN",
    "EPOCH": "2025-11-11T06:36:55.462752",
    "MEAN_MOTION": 15.0257041,
    "ECCENTRICITY": 0.0001296,
    "INCLINATION": 43.0036,
    "RA_OF_ASC_NODE": 275.3595,
    "ARG_OF_PERICENTER": 262.0535,
    "MEAN_ANOMALY": 98.016,
    "EPHEMERIS_TYPE": 0,
    "CLASSIFICATION_TYPE": "U",
    "NORAD_CAT_ID": 55605,
    "ELEMENT_SET_NO": 999,
    "REV_AT_EPOCH": 15125,
    "BSTAR": 0.00024074,
    "MEAN_MOTION_DOT": 3.053e-05,
    "MEAN_MOTION_DDOT": 0.0,
    "TLE_LINE1": "1 55605U 23020AN  25315.27564193  .00003053  00000+0  24074-3 0  9991",
    "TLE_LINE2": "2 55605  43.0036 275.3595 0001296 262.0535  98.0160 15.02570410151259",
    "COMMENT": "Grouped by shell and plane from TLE"
  },
  {
    "OBJECT_NAME": "STARLINK-5700",
    "OBJECT_ID": "23020AQ",
    "EPOCH": "2025-11-11T06:27:22.138272",
    "MEAN_MOTION": 15.02543054,
    "ECCENTRICITY": 0.0001583,
    "INCLINATION": 43.0051,
    "RA_OF_ASC_NODE": 275.314,
    "ARG_OF_PERICENTER": 269.1153,
    "MEAN_ANOMALY": 90.9508,
    "EPHEMERIS_TYPE": 0,
    "CLASSIFICATION_TYPE": "U",
    "NORAD_CAT_ID": 55607,
    "ELEMENT_SET_NO": 999,
    "REV_AT_EPOCH": 15125,
    "BSTAR": 1.7838e-05,
    "MEAN_MOTION_DOT": 3.7e-07,
    "MEAN_MOTION_DDOT": 0.0,
    "TLE_LINE1": "1 55607U 23020AQ  25315.26900623  .00000037  00000+0  17838-4 0  9994",
    "TLE_LINE2": "2 55607  43.0051 275.3140 0001583 269.1153  90.9508 15.02543054151258",
    "COMMENT": "Grouped by shell and plane from TLE"
  },
  {
    "OBJECT_NAME": "STARLINK-5726",
    "OBJECT_ID": "23020AR",
    "EPOCH": "2025-11-11T06:24:10.561824",
    "MEAN_MOTION": 15.02537812,
    "ECCENTRICITY": 0.0001212,
    "INCLINATION": 43.0045,
    "RA_OF_ASC_NODE": 275.2971,
    "ARG_OF_PERICENTER": 274.0524,
    "MEAN_ANOMALY": 86.018,
    "EPHEMERIS_TYPE": 0,
    "CLASSIFICATION_TYPE": "U",
    "NORAD_CAT_ID": 55608,
    "ELEMENT_SET_NO": 999,
    "REV_AT_EPOCH": 15125,
    "BSTAR": 0.0,
    "MEAN_MOTION_DOT": -8.06e-06,
    "MEAN_MOTION_DDOT": 0.0,
    "TLE_LINE1": "1 55608U 23020AR  25315.26678891 -.00000806  00000+0 -44601-4 0  9998",
    "TLE_LINE2": "2 55608  43.0045 275.2971 0001212 274.0524  86.0180 15.02537812151256",
    "COMMENT": "Grouped by shell and plane from TLE"
  },
  {
    "OBJECT_NAME": "STARLINK-5719",
    "OBJECT_ID": "23020AS",
    "EPOCH": "2025-11-11T06:32:09.732768",
    "MEAN_MOTION": 15.02537951,
    "ECCENTRICITY": 0.0001299,
    "INCLINATION": 43.0051,
    "RA_OF_ASC_NODE": 275.3354,
    "ARG_OF_PERICENTER": 266.8224,
    "MEAN_ANOMALY": 93.247,
    "EPHEMERIS_TYPE": 0,
    "CLASSIFICATION_TYPE": "U",
    "NORAD_CAT_ID": 55609,
    "ELEMENT_SET_NO": 999,
    "REV_AT_EPOCH": 15125,
    "BSTAR": 5.8915e-05,
    "MEAN_MOTION_DOT": 5.92e-06,
    "MEAN_MOTION_DDOT": 0.0,
    "TLE_LINE1": "1 55609U 23020AS  25315.27233487  .00000592  00000+0  58915-4 0  9991",
    "TLE_LINE2": "2 55609  43.0051 275.3354 0001299 266.8224  93.2470 15.02537951151257",
    "COMMENT": "Grouped by shell and plane from TLE"
  },
  {
    "OBJECT_NAME": "STARLINK-5722",
    "OBJECT_ID": "23020AT",
    "EPOCH": "2025-11-11T06:12:58.543488",
    "MEAN_MOTION": 15.02540279,
    "ECCENTRICITY": 0.000148,
    "INCLINATION": 43.0038,
    "RA_OF_ASC_NODE": 275.2383,
    "ARG_OF_PERICENTER": 274.3575,
    "MEAN_ANOMALY": 85.7099,
    "EPHEMERIS_TYPE": 0,
    "CLASSIFICATION_TYPE": "U",
    "NORAD_CAT_ID": 55610,
    "ELEMENT_SET_NO": 999,
    "REV_AT_EPOCH": 15125,
    "BSTAR": 0.00014102,
    "MEAN_MOTION_DOT": 1.702e-05,
    "MEAN_MOTION_DDOT": 0.0,
    "TLE_LINE1": "1 55610U 23020AT  25315.25901092  .00001702  00000+0  14102-3 0  9998",
    "TLE_LINE2": "2 55610  43.0038 275.2383 0001480 274.3575  85.7099 15.02540279151250",
    "COMMENT": "Grouped by shell and plane from TLE"
  }
]